TIANQI-15               
1 49027U 21065B   26068.81163741  .00006722  00000+0  41179-3 0  9990
2 49027  34.9979 108.2420 0007067 250.7766 109.2180 15.09508085254244
STARLINK-4272           
1 52866U 22062AN  26068.26527154 -.00001209  00000+0 -57877-4 0  9994
2 52866  53.2188  26.0231 0001355 114.2772 245.8362 15.08831406205865
